OBJECT_NAME,OBJECT_ID,EPOCH,MEAN_MOTION,ECCENTRICITY,INCLINATION,RA_OF_ASC_NODE,ARG_OF_PERICENTER,MEAN_ANOMALY,EPHEMERIS_TYPE,CLASSIFICATION_TYPE,NORAD_CAT_ID,ELEMENT_SET_NO,REV_AT_EPOCH,BSTAR,MEAN_MOTION_DOT,MEAN_MOTION_DDOT
ONEWEB-0196,2021-031J,2026-06-06T15:16:48.914400,13.14502719,.0001899,87.8957,291.8102,104.8884,255.2456,0,U,48218,999,24684,-.3017E-3,-.99E-6,0
ONEWEB-0183,2021-031K,2026-06-06T14:40:17.014656,13.14502588,.0002048,87.8958,291.8135,98.1115,262.0247,0,U,48219,999,24693,.77351E-4,.41E-6,0
ONEWEB-0185,2021-031L,2026-06-06T15:17:56.471424,13.14502970,.0002254,87.8963,291.8011,105.1064,255.0315,0,U,48220,999,24686,-.25979E-3,-.84E-6,0
ONEWEB-0187,2021-031M,2026-06-06T16:38:49.568064,13.14501836,.0001999,87.8950,291.8062,106.2653,253.8697,0,U,48221,999,24688,-.70684E-4,-.13E-6,0
ONEWEB-0192,2021-031N,2026-06-06T15:55:37.238016,13.14504718,.0001773,87.8951,291.8027,102.4571,257.6757,0,U,48222,999,24679,.67547E-3,.263E-5,0
ONEWEB-0219,2021-031P,2026-06-06T15:25:55.956000,13.14504504,.0002055,87.8953,291.7988,105.6535,254.4822,0,U,48223,999,24699,-.16126E-3,-.47E-6,0
ONEWEB-0202,2021-031Q,2026-06-06T09:29:43.246752,13.14502566,.00014775,87.8956,291.8593,118.8408,241.2871,0,U,48224,999,24694,-.45668393E-3,-.157E-5,0
ONEWEB-0204,2021-031R,2026-06-06T15:47:38.927616,13.14502233,.0002196,87.8956,291.8023,97.6044,262.5336,0,U,48225,999,24687,.67334E-3,.262E-5,0
ONEWEB-0205,2021-031S,2026-06-06T15:12:14.323968,13.14504289,.0001954,87.8966,291.7994,108.2187,251.9155,0,U,48226,999,24688,-.57137E-3,-.199E-5,0
ONEWEB-0206,2021-031T,2026-06-06T01:46:09.931584,13.14502738,.0001817,87.8962,291.9133,94.2958,265.8379,0,U,48227,999,24676,.18066E-3,.8E-6,0
ONEWEB-0182,2021-031U,2026-06-06T14:26:34.612800,13.14502065,.0002088,87.8959,291.8159,97.4509,262.6858,0,U,48228,999,24704,.68187E-3,.266E-5,0
ONEWEB-0186,2021-031V,2026-06-06T14:42:33.376320,13.14501827,.000191,87.8964,291.8034,102.7954,257.3389,0,U,48229,999,24699,.98926E-4,.49E-6,0
ONEWEB-0181,2021-031W,2026-06-06T16:00:12.633696,13.14503157,.0001864,87.8946,291.8240,105.9243,254.2092,0,U,48230,999,24685,.68875E-3,.268E-5,0
ONEWEB-0188,2021-031X,2026-06-06T09:36:34.325856,13.14503349,.00018974,87.8946,291.8753,101.4489,258.6854,0,U,48231,999,24672,-.60683595E-3,-.212E-5,0
ONEWEB-0220,2021-031Y,2026-06-06T16:02:27.904992,13.14501670,.0002089,87.8964,291.7943,107.0392,253.0966,0,U,48232,999,24702,.71647E-3,.278E-5,0
ONEWEB-0165,2021-031Z,2026-06-06T02:06:42.143328,13.14517244,.0001864,87.8962,291.9240,109.6417,250.4914,0,U,48233,999,24690,-.78591E-2,-.2901E-4,0
ONEWEB-0199,2021-031AA,2026-06-06T14:31:08.837760,13.14502550,.0001885,87.8966,291.8055,94.2651,265.8694,0,U,48234,999,24687,.40046E-3,.161E-5,0
ONEWEB-0203,2021-031AB,2026-06-06T03:19:47.292384,13.14501861,.0001718,87.8964,291.9021,99.5088,260.6236,0,U,48235,999,24682,.60307E-3,.236E-5,0
ONEWEB-0197,2021-031AC,2026-06-06T15:30:19.374048,13.14503282,.00022,87.8949,291.7882,99.8496,260.2882,0,U,48236,999,24680,.26051E-3,.109E-5,0
ONEWEB-0194,2021-031AD,2026-06-06T09:31:59.759616,13.14502316,.00017114,87.8948,291.8580,93.5633,266.5692,0,U,48237,999,24694,-.71698756E-3,-.253E-5,0
ONEWEB-0193,2021-031AE,2026-06-06T15:23:39.577056,13.14502174,.0001636,87.8955,291.8013,87.2795,272.8522,0,U,48238,999,24692,-.1952E-3,-.6E-6,0
ONEWEB-0191,2021-031AF,2026-06-06T15:39:39.242592,13.14502458,.0002077,87.8962,291.7970,97.3616,262.7749,0,U,48239,999,24678,.46842E-3,.186E-5,0
ONEWEB-0195,2021-031AG,2026-06-06T09:37:41.049984,13.14501365,.00018059,87.8960,291.8472,112.8335,247.2985,0,U,48240,999,24673,-.52284008E-3,-.181E-5,0
ONEWEB-0201,2021-031AH,2026-06-06T14:49:36.382080,13.14503929,.0002123,87.8953,291.8210,101.1987,258.9381,0,U,48241,999,24699,-.42719E-3,-.146E-5,0
ONEWEB-0207,2021-031AJ,2026-06-06T14:20:52.120608,13.14502275,.0002141,87.8961,291.8096,101.7557,258.3813,0,U,48242,999,24690,.77153E-3,.299E-5,0
ONEWEB-0208,2021-031AK,2026-06-06T15:44:13.483104,13.14503426,.0001725,87.8956,291.8049,110.3896,249.7420,0,U,48243,999,24692,.58755E-3,.231E-5,0
ONEWEB-0200,2021-031AL,2026-06-06T14:51:41.196384,13.14502099,.0001891,87.8962,291.7980,103.2741,256.8600,0,U,48244,999,24684,-.28619E-3,-.93E-6,0
ONEWEB-0217,2021-031AM,2026-06-06T15:14:31.619616,13.14502385,.0001791,87.8964,291.7997,110.8581,249.2740,0,U,48245,999,24679,-.37486E-3,-.126E-5,0
ONEWEB-0211,2021-045A,2026-06-06T13:09:20.204064,13.16196478,.000153,87.9005,261.2034,119.9592,240.1691,0,U,48767,999,24304,-.10346E-4,.9E-7,0
ONEWEB-0223,2021-045B,2026-06-06T13:05:07.253376,13.15545023,.000153,87.9006,261.3094,104.9730,255.1570,0,U,48768,999,24300,-.11429E-3,-.3E-6,0
