ONEWEB-0196             
1 48218U 21031J   26157.63667725 -.00000099  00000+0 -30170-3 0  9996
2 48218  87.8957 291.8102 0001899 104.8884 255.2456 13.14502719246848
ONEWEB-0183             
1 48219U 21031K   26157.61130804  .00000041  00000+0  77351-4 0  9996
2 48219  87.8958 291.8135 0002048  98.1115 262.0247 13.14502588246933
ONEWEB-0185             
1 48220U 21031L   26157.63745916 -.00000084  00000+0 -25979-3 0  9993
2 48220  87.8963 291.8011 0002254 105.1064 255.0315 13.14502970246860
ONEWEB-0187             
1 48221U 21031M   26157.69362927 -.00000013  00000+0 -70684-4 0  9993
2 48221  87.8950 291.8062 0001999 106.2653 253.8697 13.14501836246885
ONEWEB-0192             
1 48222U 21031N   26157.66362544  .00000263  00000+0  67547-3 0  9994
2 48222  87.8951 291.8027 0001772 102.4571 257.6757 13.14504718246795
ONEWEB-0219             
1 48223U 21031P   26157.64300875 -.00000047  00000+0 -16126-3 0  9991
2 48223  87.8953 291.7988 0002055 105.6535 254.4822 13.14504504246996
ONEWEB-0202             
1 48224U 21031Q   26157.39563943 -.00000157  00000+0 -45668-3 0  9996
2 48224  87.8956 291.8593 0001477 118.8408 241.2871 13.14502566246944
ONEWEB-0204             
1 48225U 21031R   26157.65808945  .00000262  00000+0  67334-3 0  9999
2 48225  87.8956 291.8023 0002195  97.6044 262.5336 13.14502233246876
ONEWEB-0205             
1 48226U 21031S   26157.63349912 -.00000199  00000+0 -57137-3 0  9993
2 48226  87.8966 291.7994 0001954 108.2187 251.9155 13.14504289246888
ONEWEB-0206             
1 48227U 21031T   26157.07372606  .00000080  00000+0  18066-3 0  9993
2 48227  87.8962 291.9133 0001817  94.2958 265.8379 13.14502738246766
ONEWEB-0182             
1 48228U 21031U   26157.60178950  .00000266  00000+0  68187-3 0  9994
2 48228  87.8959 291.8159 0002088  97.4509 262.6858 13.14502065247040
ONEWEB-0186             
1 48229U 21031V   26157.61288630  .00000049  00000+0  98926-4 0  9997
2 48229  87.8964 291.8034 0001910 102.7954 257.3389 13.14501827246994
ONEWEB-0181             
1 48230U 21031W   26157.66681290  .00000268  00000+0  68875-3 0  9995
2 48230  87.8946 291.8240 0001863 105.9243 254.2092 13.14503157246858
ONEWEB-0188             
1 48231U 21031X   26157.40039729 -.00000212  00000+0 -60684-3 0  9993
2 48231  87.8946 291.8753 0001897 101.4489 258.6854 13.14503349246721
ONEWEB-0220             
1 48232U 21031Y   26157.66837854  .00000278  00000+0  71647-3 0  9998
2 48232  87.8964 291.7943 0002089 107.0392 253.0966 13.14501670247023
ONEWEB-0165             
1 48233U 21031Z   26157.08798777 -.00002901  00000+0 -78591-2 0  9996
2 48233  87.8962 291.9240 0001864 109.6417 250.4914 13.14517244246904
ONEWEB-0199             
1 48234U 21031AA  26157.60496340  .00000161  00000+0  40046-3 0  9995
2 48234  87.8966 291.8055 0001885  94.2651 265.8694 13.14502550246879
ONEWEB-0203             
1 48235U 21031AB  26157.13874181  .00000236  00000+0  60307-3 0  9992
2 48235  87.8964 291.9021 0001718  99.5088 260.6236 13.14501861246823
ONEWEB-0197             
1 48236U 21031AC  26157.64605758  .00000109  00000+0  26051-3 0  9998
2 48236  87.8949 291.7882 0002200  99.8496 260.2882 13.14503282246803
ONEWEB-0194             
1 48237U 21031AD  26157.39721944 -.00000253  00000+0 -71699-3 0  9997
2 48237  87.8948 291.8580 0001711  93.5633 266.5692 13.14502316246949
ONEWEB-0193             
1 48238U 21031AE  26157.64143029 -.00000060  00000+0 -19520-3 0  9999
2 48238  87.8955 291.8013 0001636  87.2795 272.8522 13.14502174246926
ONEWEB-0191             
1 48239U 21031AF  26157.65253753  .00000186  00000+0  46842-3 0  9991
2 48239  87.8962 291.7970 0002077  97.3616 262.7749 13.14502458246788
ONEWEB-0195             
1 48240U 21031AG  26157.40116956 -.00000181  00000+0 -52284-3 0  9993
2 48240  87.8960 291.8472 0001805 112.8335 247.2985 13.14501365246736
ONEWEB-0201             
1 48241U 21031AH  26157.61778220 -.00000146  00000+0 -42719-3 0  9998
2 48241  87.8953 291.8210 0002123 101.1987 258.9381 13.14503929246992
ONEWEB-0207             
1 48242U 21031AJ  26157.59782547  .00000299  00000+0  77153-3 0  9990
2 48242  87.8961 291.8096 0002141 101.7557 258.3813 13.14502275246901
ONEWEB-0208             
1 48243U 21031AK  26157.65571161  .00000231  00000+0  58755-3 0  9999
2 48243  87.8956 291.8049 0001725 110.3896 249.7420 13.14503426246922
ONEWEB-0200             
1 48244U 21031AL  26157.61922681 -.00000093  00000+0 -28619-3 0  9997
2 48244  87.8962 291.7980 0001891 103.2741 256.8600 13.14502099246842
ONEWEB-0217             
1 48245U 21031AM  26157.63508819 -.00000126  00000+0 -37486-3 0  9992
2 48245  87.8964 291.7997 0001791 110.8581 249.2740 13.14502385246791
ONEWEB-0211             
1 48767U 21045A   26157.54815051  .00000009  00000+0 -10346-4 0  9991
2 48767  87.9005 261.2034 0001530 119.9592 240.1691 13.16196478243048
ONEWEB-0223             
1 48768U 21045B   26157.54522284 -.00000030  00000+0 -11429-3 0  9992
2 48768  87.9006 261.3094 0001530 104.9730 255.1570 13.15545023243006
